NORAD_CAT_ID,OBJECT_NAME,OBJECT_TYPE,EPOCH,MEAN_MOTION,ECCENTRICITY,INCLINATION,RA_OF_ASC_NODE,ARG_OF_PERICENTER,MEAN_ANOMALY,BSTAR,MEAN_MOTION_DOT,MEAN_MOTION_DDOT,TLE_LINE0,TLE_LINE1,TLE_LINE2,SEMIMAJOR_AXIS,PERIOD,APOGEE,PERIGEE,DECAYED
53702.0,STARLINK-4724,PAYLOAD,2024-04-13 06:53:04,15.08833835,0.000153,53.2172,110.8043,98.8248,261.2918,7.298e-05,8.73e-06,0.0,0 STARLINK-4724,1 53702U 22107C   24104.28685737  .00000873  00000-0  72980-4 0  9994,2 53702  53.2172 110.8043 0001530  98.8248 261.2918 15.08833835 90118,6917.899,95.438,540.823,538.706,0.0
53702.0,STARLINK-4724,PAYLOAD,2024-04-14 03:33:04,15.08841618,0.0001439,53.2163,106.9381,97.139,262.9766,0.00030699,4.601e-05,0.0,0 STARLINK-4724,1 53702U 22107C   24105.14797066  .00004601  00000-0  30699-3 0  9992,2 53702  53.2163 106.9381 0001439  97.1390 262.9766 15.08841618 89460,6917.875,95.437,540.736,538.745,0.0
53702.0,STARLINK-4724,PAYLOAD,2024-04-14 06:43:50,15.08850092,0.0001473,53.2162,106.3444,85.9316,274.1845,0.00033186,4.999e-05,0.0,0 STARLINK-4724,1 53702U 22107C   24105.28044880  .00004999  00000-0  33186-3 0  9990,2 53702  53.2162 106.3444 0001473  85.9316 274.1845 15.08850092 90263,6917.85,95.437,540.734,538.696,0.0
53702.0,STARLINK-4724,PAYLOAD,2024-04-15 04:59:14,15.08852434,0.0001723,53.2175,102.1824,110.737,249.3807,0.00015401,2.165e-05,0.0,0 STARLINK-4724,1 53702U 22107C   24106.20780773  .00002165  00000-0  15401-3 0  9994,2 53702  53.2175 102.1824 0001723 110.7370 249.3807 15.08852434 89620,6917.842,95.437,540.899,538.515,0.0
53702.0,STARLINK-4724,PAYLOAD,2024-04-15 09:45:23,15.08854662,0.0001718,53.2171,101.2874,108.9029,251.215,0.00012974,1.778e-05,0.0,0 STARLINK-4724,1 53702U 22107C   24106.40652492  .00001778  00000-0  12974-3 0  9993,2 53702  53.2171 101.2874 0001718 108.9029 251.2150 15.08854662 90434,6917.836,95.437,540.889,538.512,0.0
53702.0,STARLINK-4724,PAYLOAD,2024-04-16 04:50:01,15.08849327,0.0001493,53.2172,97.7206,97.1647,262.9515,-4.6307e-05,-1.025e-05,0.0,0 STARLINK-4724,1 53702U 22107C   24107.20140802 -.00001025  00000-0 -46307-4 0  9994,2 53702  53.2172  97.7206 0001493  97.1647 262.9515 15.08849327 89779,6917.852,95.437,540.75,538.684,0.0
53702.0,STARLINK-4724,PAYLOAD,2024-04-16 06:25:24,15.08850219,0.0001419,53.2177,97.4237,94.4918,265.6236,-2.3885e-05,-6.68e-06,0.0,0 STARLINK-4724,1 53702U 22107C   24107.26764627 -.00000668  00000-0 -23885-4 0  9995,2 53702  53.2177  97.4237 0001419  94.4918 265.6236 15.08850219 90565,6917.849,95.437,540.696,538.733,0.0
53702.0,STARLINK-4724,PAYLOAD,2024-04-16 15:57:43,15.08849834,0.0001606,53.2174,95.6427,95.459,264.6586,-5.9493e-05,-1.235e-05,0.0,0 STARLINK-4724,1 53702U 22107C   24107.66508530 -.00001235  00000-0 -59493-4 0  9993,2 53702  53.2174  95.6427 0001606  95.4590 264.6586 15.08849834 90623,6917.85,95.437,540.826,538.604,0.0
53702.0,STARLINK-4724,PAYLOAD,2024-04-17 04:40:47,15.08855536,0.0001471,53.2169,93.262,100.4629,259.6529,9.8932e-05,1.288e-05,0.0,0 STARLINK-4724,1 53702U 22107C   24108.19499561  .00001288  00000-0  98932-4 0  9992,2 53702  53.2169  93.2620 0001471 100.4629 259.6529 15.08855536 89924,6917.833,95.437,540.716,538.68,0.0
53702.0,STARLINK-4724,PAYLOAD,2024-04-18 04:31:36,15.08828879,0.000151,53.2172,88.8002,87.3309,272.7856,-8.2387e-05,-1.599e-05,0.0,0 STARLINK-4724,1 53702U 22107C   24109.18861318 -.00001599  00000-0 -82387-4 0  9999,2 53702  53.2172  88.8002 0001510  87.3309 272.7856 15.08828879 90071,6917.914,95.438,540.824,538.735,0.0
53702.0,STARLINK-4724,PAYLOAD,2024-04-18 06:06:59,15.08828092,0.000147,53.2153,88.5029,76.4682,283.6474,-9.5836e-05,-1.812e-05,0.0,0 STARLINK-4724,1 53702U 22107C   24109.25485509 -.00001812  00000-0 -95836-4 0  9992,2 53702  53.2153  88.5029 0001470  76.4682 283.6474 15.08828092 90865,6917.917,95.438,540.799,538.765,0.0
53702.0,STARLINK-4724,PAYLOAD,2024-04-18 22:00:48,15.08868632,0.00013,53.2169,85.5296,85.3207,274.7933,0.00038519,5.852e-05,0.0,0 STARLINK-4724,1 53702U 22107C   24109.91722508  .00005852  00000-0  38519-3 0  9998,2 53702  53.2169  85.5296 0001300  85.3207 274.7933 15.08868632 90965,6917.793,95.436,540.557,538.759,0.0
53702.0,STARLINK-4724,PAYLOAD,2024-04-19 04:22:20,15.08857282,9.65e-05,53.2164,84.343,66.8871,293.2223,0.00014892,2.084e-05,0.0,0 STARLINK-4724,1 53702U 22107C   24110.18218617  .00002084  00000-0  14892-3 0  9992,2 53702  53.2164  84.3430 0000965  66.8871 293.2223 15.08857282 90220,6917.828,95.436,540.36,539.025,0.0
53702.0,STARLINK-4724,PAYLOAD,2024-04-19 05:57:44,15.08846948,0.0001211,53.2173,84.0421,88.7832,271.3299,3.3814e-06,-2.34e-06,0.0,0 STARLINK-4724,1 53702U 22107C   24110.24843623 -.00000234  00000-0  33814-5 0  9993,2 53702  53.2173  84.0421 0001211  88.7832 271.3299 15.08846948 90230,6917.859,95.437,540.562,538.886,0.0
53702.0,STARLINK-4724,PAYLOAD,2024-04-19 21:51:37,15.08829493,0.0001551,53.2177,81.0716,73.3648,286.7514,0.00014167,1.967e-05,0.0,0 STARLINK-4724,1 53702U 22107C   24110.91085001  .00001967  00000-0  14167-3 0  9996,2 53702  53.2177  81.0716 0001551  73.3648 286.7514 15.08829493 91114,6917.913,95.438,540.85,538.705,0.0
53702.0,STARLINK-4724,PAYLOAD,2024-04-20 04:13:09,15.08835671,0.0001639,53.2157,79.8819,69.1726,290.9442,8.5485e-05,1.073e-05,0.0,0 STARLINK-4724,1 53702U 22107C   24111.17580630  .00001073  00000-0  85485-4 0  9993,2 53702  53.2157  79.8819 0001639  69.1726 290.9442 15.08835671 90377,6917.894,95.438,540.892,538.625,0.0
53702.0,STARLINK-4724,PAYLOAD,2024-04-20 21:42:24,15.08824127,0.0001428,53.2174,76.6067,89.5395,270.5761,-0.00034365,-5.751e-05,0.0,0 STARLINK-4724,1 53702U 22107C   24111.90445365 -.00005751  00000-0 -34365-3 0  9998,2 53702  53.2174  76.6067 0001428  89.5395 270.5761 15.08824127 91261,6917.929,95.439,540.782,538.806,0.0
53702.0,STARLINK-4724,PAYLOAD,2024-04-21 04:03:57,15.08817957,0.0001478,53.2173,75.4144,120.2244,239.8895,-0.00029454,-4.97e-05,0.0,0 STARLINK-4724,1 53702U 22107C   24112.16941898 -.00004970  00000-0 -29454-3 0  9994,2 53702  53.2173  75.4144 0001478 120.2244 239.8895 15.08817957 90521,6917.948,95.439,540.835,538.79,0.0
53702.0,STARLINK-4724,PAYLOAD,2024-04-21 07:14:44,15.08818723,0.0001536,53.2173,74.8186,114.2995,245.8158,-0.00031934,-5.364e-05,0.0,0 STARLINK-4724,1 53702U 22107C   24112.30190132 -.00005364  00000-0 -31934-3 0  9991,2 53702  53.2173  74.8186 0001536 114.2995 245.8158 15.08818723 91321,6917.945,95.439,540.873,538.748,0.0
53702.0,STARLINK-4724,PAYLOAD,2024-04-22 03:54:43,15.08861889,0.0001618,53.217,70.9556,93.4623,266.6554,0.00053002,8.162e-05,0.0,0 STARLINK-4724,1 53702U 22107C   24113.16300626  .00008162  00000-0  53002-3 0  9994,2 53702  53.2170  70.9556 0001618  93.4623 266.6554 15.08861889 90672,6917.813,95.436,540.798,538.559,0.0
53702.0,STARLINK-4724,PAYLOAD,2024-04-23 03:45:32,15.08840492,0.0001834,53.2177,66.4925,113.2209,246.8976,0.0003081,4.619e-05,0.0,0 STARLINK-4724,1 53702U 22107C   24114.15662085  .00004619  00000-0  30810-3 0  9999,2 53702  53.2177  66.4925 0001834 113.2209 246.8976 15.08840492 90822,6917.879,95.438,541.013,538.475,0.0
53702.0,STARLINK-4724,PAYLOAD,2024-04-23 21:14:45,15.08847031,0.0001977,53.2186,63.2235,106.8359,253.285,-0.00022193,-3.819e-05,0.0,0 STARLINK-4724,1 53702U 22107C   24114.88525332 -.00003819  00000-0 -22193-3 0  9990,2 53702  53.2186  63.2235 0001977 106.8359 253.2850 15.08847031 91711,6917.859,95.437,541.092,538.356,0.0
53702.0,STARLINK-4724,PAYLOAD,2024-04-24 06:47:04,15.08852949,0.0001695,53.2179,61.4349,97.7945,262.3239,-4.7626e-05,-1.046e-05,0.0,0 STARLINK-4724,1 53702U 22107C   24115.28268835 -.00001046  00000-0 -47626-4 0  9996,2 53702  53.2179  61.4349 0001695  97.7945 262.3239 15.08852949 90990,6917.841,95.437,540.878,538.533,0.0
53702.0,STARLINK-4724,PAYLOAD,2024-04-24 21:05:33,15.08833103,0.0001949,53.218,58.7642,114.4205,245.699,-0.00013339,-2.41e-05,0.0,0 STARLINK-4724,1 53702U 22107C   24115.87886148 -.00002410  00000-0 -13339-3 0  9993,2 53702  53.2180  58.7642 0001949 114.4205 245.6990 15.08833103 91085,6917.901,95.438,541.115,538.418,0.0
53702.0,STARLINK-4724,PAYLOAD,2024-04-25 01:51:43,15.08832013,0.000171,53.2187,57.872,112.3039,247.8135,-9.8268e-05,-1.851e-05,0.0,0 STARLINK-4724,1 53702U 22107C   24116.07758303 -.00001851  00000-0 -98268-4 0  9990,2 53702  53.2187  57.8720 0001710 112.3039 247.8135 15.08832013 91890,6917.905,95.438,540.953,538.587,0.0
53702.0,STARLINK-4724,PAYLOAD,2024-04-26 01:42:29,15.08846487,0.0001488,53.2182,53.4096,102.0077,258.1082,0.00014214,1.975e-05,0.0,0 STARLINK-4724,1 53702U 22107C   24117.07118035  .00001975  00000-0  14214-3 0  9996,2 53702  53.2182  53.4096 0001488 102.0077 258.1082 15.08846487 91260,6917.861,95.437,540.755,538.696,0.0
53702.0,STARLINK-4724,PAYLOAD,2024-04-26 12:50:11,15.08845606,0.0001525,53.2184,51.33,106.0932,254.0228,0.0001701,2.421e-05,0.0,0 STARLINK-4724,1 53702U 22107C   24117.53486073  .00002421  00000-0  17010-3 0  9991,2 53702  53.2184  51.3300 0001525 106.0932 254.0228 15.08845606 92117,6917.863,95.437,540.783,538.673,0.0
53702.0,STARLINK-4724,PAYLOAD,2024-04-27 04:44:02,15.08866644,0.0001398,53.217,48.359,110.1313,249.9829,0.00058454,9.034e-05,0.0,0 STARLINK-4724,1 53702U 22107C   24118.19725266  .00009034  00000-0  58454-3 0  9998,2 53702  53.2170  48.3590 0001398 110.1313 249.9829 15.08866644 91435,6917.799,95.436,540.631,538.697,0.0
53702.0,STARLINK-4724,PAYLOAD,2024-04-27 12:40:59,15.08834682,0.0002132,53.2192,46.8714,85.8302,274.2934,-5.3732e-05,-1.143e-05,0.0,0 STARLINK-4724,1 53702U 22107C   24118.52846711 -.00001143  00000-0 -53732-4 0  9994,2 53702  53.2192  46.8714 0002132  85.8302 274.2934 15.08834682 91483,6917.897,95.438,541.237,538.287,0.0
53702.0,STARLINK-4724,PAYLOAD,2024-04-28 12:31:46,15.08833455,0.0001546,53.2179,42.4077,98.1854,261.9313,-2.5574e-05,-6.95e-06,0.0,0 STARLINK-4724,1 53702U 22107C   24119.52206979 -.00000695  00000-0 -25574-4 0  9995,2 53702  53.2179  42.4077 0001546  98.1854 261.9313 15.08833455 92414,6917.9,95.438,540.835,538.696,0.0
